<?xml version="1.0" encoding="UTF-8"?>
<ndm xmlns:xsi="http://www.w3.org/2001/XMLSchema-instance" xsi:noNamespaceSchemaLocation="https://sanaregistry.org/r/ndmxml_unqualified/ndmxml-2.0.0-master-2.0.xsd">
<omm id="CCSDS_OMM_VERS" version="2.0">
<header><CREATION_DATE/><ORIGINATOR/></header><body><segment><metadata><OBJECT_NAME>IRIDIUM 921</OBJECT_NAME><OBJECT_ID>1997-034E</OBJECT_ID><CENTER_NAME>EARTH</CENTER_NAME><REF_FRAME>TEME</REF_FRAME><TIME_SYSTEM>UTC</TIME_SYSTEM><MEAN_ELEMENT_THEORY>SGP4</MEAN_ELEMENT_THEORY></metadata><data><meanElements><EPOCH>2024-10-13T19:07:02.222400</EPOCH><MEAN_MOTION>15.53470879</MEAN_MOTION><ECCENTRICITY>.0009146</ECCENTRICITY><INCLINATION>86.3764</INCLINATION><RA_OF_ASC_NODE>228.8557</RA_OF_ASC_NODE><ARG_OF_PERICENTER>108.2608</ARG_OF_PERICENTER><MEAN_ANOMALY>251.9649</MEAN_ANOMALY></meanElements><tleParameters><EPHEMERIS_TYPE>0</EPHEMERIS_TYPE><CLASSIFICATION_TYPE>U</CLASSIFICATION_TYPE><NORAD_CAT_ID>24873</NORAD_CAT_ID><ELEMENT_SET_NO>999</ELEMENT_SET_NO><REV_AT_EPOCH>49349</REV_AT_EPOCH><BSTAR>.13394E-2</BSTAR><MEAN_MOTION_DOT>.85799E-3</MEAN_MOTION_DOT><MEAN_MOTION_DDOT>0</MEAN_MOTION_DDOT></tleParameters></data></segment></body></omm>
<omm id="CCSDS_OMM_VERS" version="2.0">
<header><CREATION_DATE/><ORIGINATOR/></header><body><segment><metadata><OBJECT_NAME>IRIDIUM 26</OBJECT_NAME><OBJECT_ID>1997-043A</OBJECT_ID><CENTER_NAME>EARTH</CENTER_NAME><REF_FRAME>TEME</REF_FRAME><TIME_SYSTEM>UTC</TIME_SYSTEM><MEAN_ELEMENT_THEORY>SGP4</MEAN_ELEMENT_THEORY></metadata><data><meanElements><EPOCH>2024-10-14T03:56:10.740480</EPOCH><MEAN_MOTION>14.36693714</MEAN_MOTION><ECCENTRICITY>.0002388</ECCENTRICITY><INCLINATION>86.4009</INCLINATION><RA_OF_ASC_NODE>213.8280</RA_OF_ASC_NODE><ARG_OF_PERICENTER>89.7002</ARG_OF_PERICENTER><MEAN_ANOMALY>270.4469</MEAN_ANOMALY></meanElements><tleParameters><EPHEMERIS_TYPE>0</EPHEMERIS_TYPE><CLASSIFICATION_TYPE>U</CLASSIFICATION_TYPE><NORAD_CAT_ID>24903</NORAD_CAT_ID><ELEMENT_SET_NO>999</ELEMENT_SET_NO><REV_AT_EPOCH>42188</REV_AT_EPOCH><BSTAR>.46266E-3</BSTAR><MEAN_MOTION_DOT>.1382E-4</MEAN_MOTION_DOT><MEAN_MOTION_DDOT>0</MEAN_MOTION_DDOT></tleParameters></data></segment></body></omm>
<omm id="CCSDS_OMM_VERS" version="2.0">
<header><CREATION_DATE/><ORIGINATOR/></header><body><segment><metadata><OBJECT_NAME>IRIDIUM 22</OBJECT_NAME><OBJECT_ID>1997-043E</OBJECT_ID><CENTER_NAME>EARTH</CENTER_NAME><REF_FRAME>TEME</REF_FRAME><TIME_SYSTEM>UTC</TIME_SYSTEM><MEAN_ELEMENT_THEORY>SGP4</MEAN_ELEMENT_THEORY></metadata><data><meanElements><EPOCH>2024-10-13T18:06:50.304960</EPOCH><MEAN_MOTION>14.35555436</MEAN_MOTION><ECCENTRICITY>.0002475</ECCENTRICITY><INCLINATION>86.4004</INCLINATION><RA_OF_ASC_NODE>217.3267</RA_OF_ASC_NODE><ARG_OF_PERICENTER>84.7406</ARG_OF_PERICENTER><MEAN_ANOMALY>275.4073</MEAN_ANOMALY></meanElements><tleParameters><EPHEMERIS_TYPE>0</EPHEMERIS_TYPE><CLASSIFICATION_TYPE>U</CLASSIFICATION_TYPE><NORAD_CAT_ID>24907</NORAD_CAT_ID><ELEMENT_SET_NO>999</ELEMENT_SET_NO><REV_AT_EPOCH>42141</REV_AT_EPOCH><BSTAR>.4926E-3</BSTAR><MEAN_MOTION_DOT>.1437E-4</MEAN_MOTION_DOT><MEAN_MOTION_DDOT>0</MEAN_MOTION_DDOT></tleParameters></data></segment></body></omm>
<omm id="CCSDS_OMM_VERS" version="2.0">
<header><CREATION_DATE/><ORIGINATOR/></header><body><segment><metadata><OBJECT_NAME>DUMMY MASS 1</OBJECT_NAME><OBJECT_ID>1997-048A</OBJECT_ID><CENTER_NAME>EARTH</CENTER_NAME><REF_FRAME>TEME</REF_FRAME><TIME_SYSTEM>UTC</TIME_SYSTEM><MEAN_ELEMENT_THEORY>SGP4</MEAN_ELEMENT_THEORY></metadata><data><meanElements><EPOCH>2024-10-13T21:13:09.181920</EPOCH><MEAN_MOTION>14.86508585</MEAN_MOTION><ECCENTRICITY>.0004716</ECCENTRICITY><INCLINATION>86.3322</INCLINATION><RA_OF_ASC_NODE>249.1060</RA_OF_ASC_NODE><ARG_OF_PERICENTER>316.4209</ARG_OF_PERICENTER><MEAN_ANOMALY>43.6642</MEAN_ANOMALY></meanElements><tleParameters><EPHEMERIS_TYPE>0</EPHEMERIS_TYPE><CLASSIFICATION_TYPE>U</CLASSIFICATION_TYPE><NORAD_CAT_ID>24925</NORAD_CAT_ID><ELEMENT_SET_NO>999</ELEMENT_SET_NO><REV_AT_EPOCH>46853</REV_AT_EPOCH><BSTAR>.17498E-3</BSTAR><MEAN_MOTION_DOT>.1575E-4</MEAN_MOTION_DOT><MEAN_MOTION_DDOT>0</MEAN_MOTION_DDOT></tleParameters></data></segment></body></omm>
<omm id="CCSDS_OMM_VERS" version="2.0">
<header><CREATION_DATE/><ORIGINATOR/></header><body><segment><metadata><OBJECT_NAME>DUMMY MASS 2</OBJECT_NAME><OBJECT_ID>1997-048B</OBJECT_ID><CENTER_NAME>EARTH</CENTER_NAME><REF_FRAME>TEME</REF_FRAME><TIME_SYSTEM>UTC</TIME_SYSTEM><MEAN_ELEMENT_THEORY>SGP4</MEAN_ELEMENT_THEORY></metadata><data><meanElements><EPOCH>2024-10-13T20:56:50.686368</EPOCH><MEAN_MOTION>14.86264054</MEAN_MOTION><ECCENTRICITY>.0005904</ECCENTRICITY><INCLINATION>86.3321</INCLINATION><RA_OF_ASC_NODE>250.6752</RA_OF_ASC_NODE><ARG_OF_PERICENTER>328.4725</ARG_OF_PERICENTER><MEAN_ANOMALY>31.6145</MEAN_ANOMALY></meanElements><tleParameters><EPHEMERIS_TYPE>0</EPHEMERIS_TYPE><CLASSIFICATION_TYPE>U</CLASSIFICATION_TYPE><NORAD_CAT_ID>24926</NORAD_CAT_ID><ELEMENT_SET_NO>999</ELEMENT_SET_NO><REV_AT_EPOCH>46831</REV_AT_EPOCH><BSTAR>.17656E-3</BSTAR><MEAN_MOTION_DOT>.158E-4</MEAN_MOTION_DOT><MEAN_MOTION_DDOT>0</MEAN_MOTION_DDOT></tleParameters></data></segment></body></omm>
<omm id="CCSDS_OMM_VERS" version="2.0">
<header><CREATION_DATE/><ORIGINATOR/></header><body><segment><metadata><OBJECT_NAME>IRIDIUM 29</OBJECT_NAME><OBJECT_ID>1997-051A</OBJECT_ID><CENTER_NAME>EARTH</CENTER_NAME><REF_FRAME>TEME</REF_FRAME><TIME_SYSTEM>UTC</TIME_SYSTEM><MEAN_ELEMENT_THEORY>SGP4</MEAN_ELEMENT_THEORY></metadata><data><meanElements><EPOCH>2024-10-13T20:38:16.681920</EPOCH><MEAN_MOTION>14.36002279</MEAN_MOTION><ECCENTRICITY>.0002454</ECCENTRICITY><INCLINATION>86.3934</INCLINATION><RA_OF_ASC_NODE>247.1159</RA_OF_ASC_NODE><ARG_OF_PERICENTER>81.8752</ARG_OF_PERICENTER><MEAN_ANOMALY>278.2723</MEAN_ANOMALY></meanElements><tleParameters><EPHEMERIS_TYPE>0</EPHEMERIS_TYPE><CLASSIFICATION_TYPE>U</CLASSIFICATION_TYPE><NORAD_CAT_ID>24944</NORAD_CAT_ID><ELEMENT_SET_NO>999</ELEMENT_SET_NO><REV_AT_EPOCH>41791</REV_AT_EPOCH><BSTAR>.51243E-3</BSTAR><MEAN_MOTION_DOT>.1507E-4</MEAN_MOTION_DOT><MEAN_MOTION_DDOT>0</MEAN_MOTION_DDOT></tleParameters></data></segment></body></omm>
<omm id="CCSDS_OMM_VERS" version="2.0">
<header><CREATION_DATE/><ORIGINATOR/></header><body><segment><metadata><OBJECT_NAME>IRIDIUM 33</OBJECT_NAME><OBJECT_ID>1997-051C</OBJECT_ID><CENTER_NAME>EARTH</CENTER_NAME><REF_FRAME>TEME</REF_FRAME><TIME_SYSTEM>UTC</TIME_SYSTEM><MEAN_ELEMENT_THEORY>SGP4</MEAN_ELEMENT_THEORY></metadata><data><meanElements><EPOCH>2024-10-13T20:39:59.242176</EPOCH><MEAN_MOTION>14.34570602</MEAN_MOTION><ECCENTRICITY>.0008788</ECCENTRICITY><INCLINATION>86.3853</INCLINATION><RA_OF_ASC_NODE>246.3617</RA_OF_ASC_NODE><ARG_OF_PERICENTER>147.1482</ARG_OF_PERICENTER><MEAN_ANOMALY>213.0262</MEAN_ANOMALY></meanElements><tleParameters><EPHEMERIS_TYPE>0</EPHEMERIS_TYPE><CLASSIFICATION_TYPE>U</CLASSIFICATION_TYPE><NORAD_CAT_ID>24946</NORAD_CAT_ID><ELEMENT_SET_NO>999</ELEMENT_SET_NO><REV_AT_EPOCH>41742</REV_AT_EPOCH><BSTAR>.39835E-3</BSTAR><MEAN_MOTION_DOT>.1144E-4</MEAN_MOTION_DOT><MEAN_MOTION_DDOT>0</MEAN_MOTION_DDOT></tleParameters></data></segment></body></omm>
<omm id="CCSDS_OMM_VERS" version="2.0">
<header><CREATION_DATE/><ORIGINATOR/></header><body><segment><metadata><OBJECT_NAME>IRIDIUM 28</OBJECT_NAME><OBJECT_ID>1997-051E</OBJECT_ID><CENTER_NAME>EARTH</CENTER_NAME><REF_FRAME>TEME</REF_FRAME><TIME_SYSTEM>UTC</TIME_SYSTEM><MEAN_ELEMENT_THEORY>SGP4</MEAN_ELEMENT_THEORY></metadata><data><meanElements><EPOCH>2024-10-14T03:11:52.909728</EPOCH><MEAN_MOTION>14.36950884</MEAN_MOTION><ECCENTRICITY>.000252</ECCENTRICITY><INCLINATION>86.3948</INCLINATION><RA_OF_ASC_NODE>244.6558</RA_OF_ASC_NODE><ARG_OF_PERICENTER>96.0982</ARG_OF_PERICENTER><MEAN_ANOMALY>264.0502</MEAN_ANOMALY></meanElements><tleParameters><EPHEMERIS_TYPE>0</EPHEMERIS_TYPE><CLASSIFICATION_TYPE>U</CLASSIFICATION_TYPE><NORAD_CAT_ID>24948</NORAD_CAT_ID><ELEMENT_SET_NO>999</ELEMENT_SET_NO><REV_AT_EPOCH>41857</REV_AT_EPOCH><BSTAR>.49315E-3</BSTAR><MEAN_MOTION_DOT>.1479E-4</MEAN_MOTION_DOT><MEAN_MOTION_DDOT>0</MEAN_MOTION_DDOT></tleParameters></data></segment></body></omm>

</ndm>
