IRIDIUM 921             
1 24873U 97034E   24287.79655350  .00085799  00000+0  13394-2 0  9999
2 24873  86.3764 228.8557 0009146 108.2608 251.9649 15.53470879493496
IRIDIUM 26              
1 24903U 97043A   24288.16401320  .00001382  00000+0  46266-3 0  9992
2 24903  86.4009 213.8280 0002388  89.7002 270.4469 14.36693714421887
IRIDIUM 22              
1 24907U 97043E   24287.75474890  .00001437  00000+0  49260-3 0  9990
2 24907  86.4004 217.3267 0002475  84.7406 275.4073 14.35555436421412
DUMMY MASS 1            
1 24925U 97048A   24287.88413405  .00001575  00000+0  17498-3 0  9995
2 24925  86.3322 249.1060 0004716 316.4209  43.6642 14.86508585468534
DUMMY MASS 2            
1 24926U 97048B   24287.87280887  .00001580  00000+0  17656-3 0  9993
2 24926  86.3321 250.6752 0005904 328.4725  31.6145 14.86264054468316
IRIDIUM 29              
1 24944U 97051A   24287.85991530  .00001507  00000+0  51243-3 0  9998
2 24944  86.3934 247.1159 0002454  81.8752 278.2723 14.36002279417910
IRIDIUM 33              
1 24946U 97051C   24287.86110234  .00001144  00000+0  39835-3 0  9995
2 24946  86.3853 246.3617 0008788 147.1482 213.0262 14.34570602417423
IRIDIUM 28              
1 24948U 97051E   24288.13325127  .00001479  00000+0  49315-3 0  9992
2 24948  86.3948 244.6558 0002520  96.0982 264.0502 14.36950884418576
